NORAD_CAT_ID,OBJECT_NAME,OBJECT_TYPE,EPOCH,MEAN_MOTION,ECCENTRICITY,INCLINATION,RA_OF_ASC_NODE,ARG_OF_PERICENTER,MEAN_ANOMALY,BSTAR,MEAN_MOTION_DOT,MEAN_MOTION_DDOT,TLE_LINE0,TLE_LINE1,TLE_LINE2,SEMIMAJOR_AXIS,PERIOD,APOGEE,PERIGEE,DECAYED
53406.0,STARLINK-4533,PAYLOAD,2023-01-26 15:09:29,15.08830617,0.0001333,53.2184,183.054,82.7307,277.3837,-1.587e-05,-5.400000000000001e-06,0.0,0 STARLINK-4533,1 53406U 22097U   23026.63159699 -.00000540  00000-0 -15870-4 0  9995,2 53406  53.2184 183.0540 0001333  82.7307 277.3837 15.08830617 26353,6917.909000000001,95.438,540.696,538.852,0.0
53406.0,STARLINK-4533,PAYLOAD,2023-01-27 13:24:53,15.08846812,0.0001143,53.2176,178.8896,91.0206,269.0917,-2.7664e-05,-7.28e-06,0.0,0 STARLINK-4533,1 53406U 22097U   23027.55894692 -.00000728  00000-0 -27664-4 0  9998,2 53406  53.2176 178.8896 0001143  91.0206 269.0917 15.08846812 26980,6917.86,95.437,540.515,538.934,0.0
53406.0,STARLINK-4533,PAYLOAD,2023-01-27 15:00:16,15.08847423,0.0001155,53.2175,178.5924,89.6391,270.4734,-2.0868e-05,-6.2e-06,0.0,0 STARLINK-4533,1 53406U 22097U   23027.62518613 -.00000620  00000-0 -20868-4 0  9992,2 53406  53.2175 178.5924 0001155  89.6391 270.4734 15.08847423 26509,6917.858,95.437,540.5219999999999,538.924,0.0
53406.0,STARLINK-4533,PAYLOAD,2023-01-27 16:35:38,15.0885593,0.0001047,53.2175,178.2947,98.028,262.0831,-0.00010868,-2.018e-05,0.0,0 STARLINK-4533,1 53406U 22097U   23027.69142307 -.00002018  00000-0 -10868-3 0  9993,2 53406  53.2175 178.2947 0001047  98.0280 262.0831 15.08855930 27005,6917.831999999999,95.437,540.4209999999999,538.972,0.0
53406.0,STARLINK-4533,PAYLOAD,2023-01-28 05:18:44,15.08836763,9.42e-05,53.2172,175.9168,88.3052,271.8048,1.8713e-05,1e-07,0.0,0 STARLINK-4533,1 53406U 22097U   23028.22134914  .00000010  00000-0  18713-4 0  9994,2 53406  53.2172 175.9168 0000942  88.3052 271.8048 15.08836763 26597,6917.89,95.438,540.4069999999999,539.104,0.0
53406.0,STARLINK-4533,PAYLOAD,2023-01-28 13:15:40,15.08826277,9.92e-05,53.2177,174.4306,73.7775,286.3326,7.4324e-05,8.95e-06,0.0,0 STARLINK-4533,1 53406U 22097U   23028.55255669  .00000895  00000-0  74324-4 0  9992,2 53406  53.2177 174.4306 0000992  73.7775 286.3326 15.08826277 26640,6917.922,95.438,540.474,539.101,0.0
53406.0,STARLINK-4533,PAYLOAD,2023-01-28 16:26:27,15.08830533,0.0001,53.2175,173.8358,61.7228,298.3865,6.6871e-05,7.76e-06,0.0,0 STARLINK-4533,1 53406U 22097U   23028.68503511  .00000776  00000-0  66871-4 0  9994,2 53406  53.2175 173.8358 0001000  61.7228 298.3865 15.08830533 27157,6917.909,95.438,540.466,539.083,0.0
53406.0,STARLINK-4533,PAYLOAD,2023-01-29 13:06:28,15.088383,0.0001317,53.2179,169.9702,80.6214,279.4927,-5.4811e-05,-1.16e-05,0.0,0 STARLINK-4533,1 53406U 22097U   23029.54615896 -.00001160  00000-0 -54811-4 0  9991,2 53406  53.2179 169.9702 0001317  80.6214 279.4927 15.08838300 26794,6917.886,95.438,540.662,538.839,0.0
53406.0,STARLINK-4533,PAYLOAD,2023-01-29 16:17:14,15.08839266,0.0001021,53.218,169.3753,76.9818,283.1288,-8.1337e-06,-4.17e-06,0.0,0 STARLINK-4533,1 53406U 22097U   23029.67863675 -.00000417  00000-0 -81337-5 0  9993,2 53406  53.2180 169.3753 0001021  76.9818 283.1288 15.08839266 27308,6917.883,95.438,540.454,539.041,0.0
53406.0,STARLINK-4533,PAYLOAD,2023-01-30 11:21:52,15.08827207,0.0001038,53.2182,165.808,79.8899,280.221,3.1453e-05,2.13e-06,0.0,0 STARLINK-4533,1 53406U 22097U   23030.47352606  .00000213  00000-0  31453-4 0  9995,2 53406  53.2182 165.8080 0001038  79.8899 280.2210 15.08827207 26936,6917.919,95.438,540.503,539.066,0.0
53406.0,STARLINK-4533,PAYLOAD,2023-01-31 01:40:20,15.088339,9.9e-05,53.2183,163.1318,94.1315,265.9791,0.00011338,1.517e-05,0.0,0 STARLINK-4533,1 53406U 22097U   23031.06968150  .00001517  00000-0  11338-3 0  9995,2 53406  53.2183 163.1318 0000990  94.1315 265.9791 15.08833900 27023,6917.899,95.438,540.449,539.079,0.0
53406.0,STARLINK-4533,PAYLOAD,2023-01-31 12:48:02,15.0883707,0.0001016,53.2181,161.051,77.6849,282.4257,8.9383e-05,1.135e-05,0.0,0 STARLINK-4533,1 53406U 22097U   23031.53336148  .00001135  00000-0  89383-4 0  9995,2 53406  53.2181 161.0510 0001016  77.6849 282.4257 15.08837070 27584,6917.889,95.438,540.457,539.051,0.0
53406.0,STARLINK-4533,PAYLOAD,2023-01-31 17:34:11,15.08827988,0.0001068,53.2178,160.1584,98.4796,261.6317,0.00038016,5.766e-05,0.0,0 STARLINK-4533,1 53406U 22097U   23031.73207810  .00005766  00000-0  38016-3 0  9990,2 53406  53.2178 160.1584 0001068  98.4796 261.6317 15.08827988 27617,6917.917,95.438,540.521,539.043,0.0
53406.0,STARLINK-4533,PAYLOAD,2023-02-01 11:03:26,15.08837755,0.0001275,53.2175,156.8871,87.1919,272.9219,6.9993e-05,8.26e-06,0.0,0 STARLINK-4533,1 53406U 22097U   23032.46072147  .00000826  00000-0  69993-4 0  9995,2 53406  53.2175 156.8871 0001275  87.1919 272.9219 15.08837755 27234,6917.887,95.438,540.634,538.87,0.0
53406.0,STARLINK-4533,PAYLOAD,2023-02-01 12:38:49,15.08837934,9.92e-05,53.2179,156.5911,89.5923,270.5183,7.1208e-05,8.46e-06,0.0,0 STARLINK-4533,1 53406U 22097U   23032.52696048  .00000846  00000-0  71208-4 0  9998,2 53406  53.2179 156.5911 0000992  89.5923 270.5183 15.08837934 27734,6917.887,95.438,540.438,539.065,0.0
53406.0,STARLINK-4533,PAYLOAD,2023-02-02 12:29:36,15.08837475,0.0001137,53.2175,152.1308,86.0624,274.0498,-2.1092e-05,-6.23e-06,0.0,0 STARLINK-4533,1 53406U 22097U   23033.52056351 -.00000623  00000-0 -21092-4 0  9997,2 53406  53.2175 152.1308 0001137  86.0624 274.0498 15.08837475 27888,6917.888,95.438,540.54,538.967,0.0
53406.0,STARLINK-4533,PAYLOAD,2023-02-02 17:15:45,15.08841578,0.0001628,53.216,151.2362,90.916,269.2019,-1.3737e-05,-5.07e-06,0.0,0 STARLINK-4533,1 53406U 22097U   23033.71928099 -.00000507  00000-0 -13737-4 0  9993,2 53406  53.2160 151.2362 0001628  90.9160 269.2019 15.08841578 27420,6917.876,95.437,540.867,538.614,0.0
53406.0,STARLINK-4533,PAYLOAD,2023-02-03 01:12:41,15.08835021,0.0001675,53.2176,149.7513,85.4642,274.6541,-2.9847e-05,-7.63e-06,0.0,0 STARLINK-4533,1 53406U 22097U   23034.05048611 -.00000763  00000-0 -29847-4 0  9997,2 53406  53.2176 149.7513 0001675  85.4642 274.6541 15.08835021 27474,6917.896,95.438,540.919,538.602,0.0
53406.0,STARLINK-4533,PAYLOAD,2023-02-03 10:45:01,15.08831494,0.0001662,53.2174,147.9669,87.1707,272.9475,-4.8061e-05,-1.053e-05,0.0,0 STARLINK-4533,1 53406U 22097U   23034.44793017 -.00001053  00000-0 -48061-4 0  9999,2 53406  53.2174 147.9669 0001662  87.1707 272.9475 15.08831494 28020,6917.906,95.438,540.921,538.622,0.0
53406.0,STARLINK-4533,PAYLOAD,2023-02-03 17:06:33,15.08841233,0.0001782,53.2176,146.7736,115.1326,244.9851,-3.8738e-05,-9.05e-06,0.0,0 STARLINK-4533,1 53406U 22097U   23034.71288261 -.00000905  00000-0 -38738-4 0  9994,2 53406  53.2176 146.7736 0001782 115.1326 244.9851 15.08841233 28069,6917.877,95.437,540.974,538.509,0.0
53406.0,STARLINK-4533,PAYLOAD,2023-02-04 07:25:01,15.08833984,0.0001426,53.2176,144.0993,105.6664,254.4485,6.9851e-05,8.24e-06,0.0,0 STARLINK-4533,1 53406U 22097U   23035.30904393  .00000824  00000-0  69851-4 0  9999,2 53406  53.2176 144.0993 0001426 105.6664 254.4485 15.08833984 27667,6917.899,95.438,540.75,538.777,0.0
53406.0,STARLINK-4533,PAYLOAD,2023-02-04 13:46:33,15.08843438,0.0001588,53.2184,142.9113,107.0229,253.0937,5.7403e-05,6.26e-06,0.0,0 STARLINK-4533,1 53406U 22097U   23035.57399852  .00000626  00000-0  57403-4 0  9996,2 53406  53.2184 142.9113 0001588 107.0229 253.0937 15.08843438 27706,6917.87,95.437,540.833,538.636,0.0
53406.0,STARLINK-4533,PAYLOAD,2023-02-04 16:57:19,15.08847222,0.0001504,53.2179,142.3148,111.5308,248.5845,6.5996e-05,7.63e-06,0.0,0 STARLINK-4533,1 53406U 22097U   23035.70647529  .00000763  00000-0  65996-4 0  9996,2 53406  53.2179 142.3148 0001504 111.5308 248.5845 15.08847222 28217,6917.858,95.437,540.764,538.683,0.0
53406.0,STARLINK-4533,PAYLOAD,2023-02-05 13:37:21,15.08834653,0.0001501,53.2188,138.4468,118.7261,241.3882,4.259e-06,-2.2e-06,0.0,0 STARLINK-4533,1 53406U 22097U   23036.56760903 -.00000220  00000-0  42590-5 0  9998,2 53406  53.2188 138.4468 0001501 118.7261 241.3882 15.08834653 27857,6917.897,95.438,540.8,538.723,0.0
53406.0,STARLINK-4533,PAYLOAD,2023-02-05 16:48:07,15.08837575,0.0001139,53.218,137.8568,101.4627,258.6493,4.1321e-06,-2.22e-06,0.0,0 STARLINK-4533,1 53406U 22097U   23036.70008793 -.00000222  00000-0  41321-5 0  9999,2 53406  53.2180 137.8568 0001139 101.4627 258.6493 15.08837575 28367,6917.888,95.438,540.541,538.965,0.0
53406.0,STARLINK-4533,PAYLOAD,2023-02-06 11:52:44,15.08848549,0.0001259,53.2196,134.2876,102.1654,257.9479,1.5035e-05,-4.9e-07,0.0,0 STARLINK-4533,1 53406U 22097U   23037.49496298 -.00000049  00000-0  15035-4 0  9996,2 53406  53.2196 134.2876 0001259 102.1654 257.9479 15.08848549 27995,6917.854,95.437,540.59,538.848,0.0
53406.0,STARLINK-4533,PAYLOAD,2023-02-06 13:28:07,15.08852117,0.000123,53.2193,133.9903,100.7491,259.3639,3.187e-05,2.2e-06,0.0,0 STARLINK-4533,1 53406U 22097U   23037.56119929  .00000220  00000-0  31870-4 0  9992,2 53406  53.2193 133.9903 0001230 100.7491 259.3639 15.08852117 28497,6917.843,95.437,540.559,538.857,0.0
53406.0,STARLINK-4533,PAYLOAD,2023-02-06 16:38:53,15.08858415,0.0001051,53.219,133.3954,115.1783,244.9318,8.807e-05,1.115e-05,0.0,0 STARLINK-4533,1 53406U 22097U   23037.69367147  .00001115  00000-0  88070-4 0  9991,2 53406  53.2190 133.3954 0001051 115.1783 244.9318 15.08858415 28029,6917.824,95.436,540.416,538.962,0.0
53406.0,STARLINK-4533,PAYLOAD,2023-02-07 05:21:59,15.08840221,0.0001534,53.2184,131.0171,80.1853,279.9312,0.00016464,2.333e-05,0.0,0 STARLINK-4533,1 53406U 22097U   23038.22360388  .00002333  00000-0  16464-3 0  9991,2 53406  53.2184 131.0171 0001534  80.1853 279.9312 15.08840221 28100,6917.88,95.438,540.806,538.684,0.0
53406.0,STARLINK-4533,PAYLOAD,2023-02-07 13:18:55,15.08842172,0.0001289,53.2194,129.5318,89.1927,270.9213,0.00010117,1.323e-05,0.0,0 STARLINK-4533,1 53406U 22097U   23038.55480400  .00001323  00000-0  10117-3 0  9992,2 53406  53.2194 129.5318 0001289  89.1927 270.9213 15.08842172 28641,6917.874,95.437,540.63,538.847,0.0
